OBJECT_NAME,OBJECT_ID,EPOCH,MEAN_MOTION,ECCENTRICITY,INCLINATION,RA_OF_ASC_NODE,ARG_OF_PERICENTER,MEAN_ANOMALY,EPHEMERIS_TYPE,CLASSIFICATION_TYPE,NORAD_CAT_ID,ELEMENT_SET_NO,REV_AT_EPOCH,BSTAR,MEAN_MOTION_DOT,MEAN_MOTION_DDOT
2026-134A,2026-134A,2026-07-04T05:27:05.505984,15.09372206,.00152055,97.6996,255.3971,208.7898,151.2493,0,U,69538,999,288,.40844532E-3,.6476E-4,0
2026-134B,2026-134B,2026-07-04T05:24:14.816736,15.09528572,.00152922,97.6972,255.3939,211.4495,148.5821,0,U,69539,999,287,.40849399E-3,.6505E-4,0
2026-134C,2026-134C,2026-07-04T05:23:40.524576,15.09561170,.0014722,97.6979,255.3957,212.5754,147.4567,0,U,69540,999,287,.42725241E-3,.6812E-4,0
2026-134D,2026-134D,2026-07-04T05:22:38.021952,15.09618313,.00157815,97.7018,255.4058,212.3481,147.6782,0,U,69541,999,287,.42072789E-3,.672E-4,0
2026-134E,2026-134E,2026-07-04T05:22:14.058048,15.09639924,.00155178,97.7036,255.4106,213.1036,146.9223,0,U,69542,999,287,.41716388E-3,.6665E-4,0
2026-134F,2026-134F,2026-07-04T05:21:24.090336,15.09686274,.00148176,97.6990,255.4004,214.7641,145.2620,0,U,69543,999,287,.43289086E-3,.6927E-4,0
2026-134G,2026-134G,2026-07-04T05:19:52.798368,15.09770286,.00152811,97.7035,255.4121,215.5738,144.4473,0,U,69544,999,287,.42854999E-3,.6873E-4,0
2026-134H,2026-134H,2026-07-04T03:43:14.978208,15.09836335,.00151186,97.7020,255.3432,217.2385,142.7797,0,U,69545,999,285,.43881354E-3,.7052E-4,0
STARLINK-37880,2026-135A,2026-07-03T19:13:36.852672,15.80904944,.00021111,97.2840,212.7588,89.2556,270.8954,0,U,69546,999,288,.19203824E-2,.386018E-2,0
STARLINK-37881,2026-135B,2026-07-04T01:17:24.106272,15.80964806,.00015594,97.2826,213.0268,131.5270,228.6133,0,U,69547,999,292,.15186567E-2,.303143E-2,0
STARLINK-37265,2026-135C,2026-07-03T20:42:58.442688,15.80901877,.00013892,97.2827,212.8265,93.3471,266.7956,0,U,69548,999,289,.14192362E-2,.281777E-2,0
STARLINK-37871,2026-135D,2026-07-04T01:15:05.308128,15.81025527,.00018039,97.2827,213.0285,147.3246,212.8135,0,U,69549,999,292,.24029211E-2,.49172E-2,0
STARLINK-37865,2026-135E,2026-07-04T01:13:00.579360,15.80981843,.00014826,97.2826,213.0300,120.5844,239.5570,0,U,69550,999,292,.17163507E-2,.344541E-2,0
STARLINK-37862,2026-135F,2026-07-04T01:08:58.442496,15.80947798,.00014284,97.2828,213.0339,126.2530,233.8870,0,U,69551,999,292,.14266468E-2,.283914E-2,0
STARLINK-37861,2026-135G,2026-07-04T01:06:13.999968,15.80971130,.00014695,97.2828,213.0370,140.0801,220.0575,0,U,69552,999,292,.17226863E-2,.34569E-2,0
STARLINK-37859,2026-135H,2026-07-03T14:26:49.401024,15.80558590,.00039433,97.2846,212.5705,58.3959,301.7694,0,U,69553,999,285,.15227295E-2,.298278E-2,0
STARLINK-37860,2026-135J,2026-07-04T04:07:06.877632,15.77972564,.00124863,97.2834,213.1729,4.6393,355.4987,0,U,69554,999,294,-.14871852E-1,-.2164876E-1,0
STARLINK-37858,2026-135K,2026-07-04T01:01:52.518144,15.80969658,.00015441,97.2826,213.0416,124.8272,235.3142,0,U,69555,999,292,.1543446E-2,.308347E-2,0
STARLINK-37927,2026-135L,2026-07-04T01:01:31.719072,15.80958519,.00012235,97.2822,213.0417,149.3991,210.7349,0,U,69556,999,292,.15983003E-2,.319567E-2,0
STARLINK-37929,2026-135M,2026-07-04T01:00:19.448928,15.80973910,.00012374,97.2831,213.0429,122.9687,237.1701,0,U,69557,999,292,.16394476E-2,.328363E-2,0
STARLINK-37954,2026-135N,2026-07-04T00:58:34.113504,15.81049116,.00019609,97.2829,213.0449,135.3435,224.7992,0,U,69558,999,292,.25833006E-2,.531675E-2,0
STARLINK-37958,2026-135P,2026-07-04T00:00:02.999808,15.80773563,.00014227,97.2829,213.0090,88.1489,54.8962,0,U,69559,999,401,.55098621E-3,.106489E-2,0
STARLINK-37950,2026-135Q,2026-07-03T12:43:35.601024,15.82036885,.00043771,97.2823,212.5148,340.2032,19.9066,0,U,69560,999,284,.24302809E-2,.522816E-2,0
STARLINK-37952,2026-135R,2026-07-04T03:55:06.105504,15.80939297,.00009139,97.2829,213.1843,98.2757,261.8615,0,U,69561,999,294,.14334088E-2,.285195E-2,0
STARLINK-37935,2026-135S,2026-07-04T00:51:41.189760,15.80951662,.00011595,97.2830,213.0517,128.9240,231.2132,0,U,69562,999,292,.14835609E-2,.295703E-2,0
STARLINK-37936,2026-135T,2026-07-04T04:00:03.999744,15.80853010,.00014399,97.2828,213.2076,89.3766,334.6517,0,U,69563,999,404,-.18539178E-3,-.35569E-3,0
STARLINK-37932,2026-135U,2026-07-04T00:41:03.807456,15.80975056,.00013512,97.2829,213.0616,124.1962,235.9434,0,U,69564,999,292,.16412075E-2,.328746E-2,0
STARLINK-37916,2026-135V,2026-07-04T00:40:16.406688,15.80976272,.00012074,97.2828,213.0626,116.7245,243.4147,0,U,69565,999,292,.15812978E-2,.316302E-2,0
STARLINK-37909,2026-135W,2026-07-04T00:31:10.972128,15.80907704,.00015289,97.2835,213.0713,100.9655,259.1786,0,U,69566,999,292,.15465524E-2,.308087E-2,0
STARLINK-37934,2026-135X,2026-07-04T00:35:48.062976,15.81005796,.00013805,97.2831,213.0676,125.2444,234.8954,0,U,69567,999,292,.21419073E-2,.435028E-2,0
