2026-134A               
1 69538U 26134A   26185.22714706  .00006476  00000+0  40845-3 0  9994
2 69538  97.6996 255.3971 0015205 208.7898 151.2493 15.09372206  2884
2026-134B               
1 69539U 26134B   26185.22517149  .00006505  00000+0  40849-3 0  9994
2 69539  97.6972 255.3939 0015292 211.4495 148.5821 15.09528572  2875
2026-134C               
1 69540U 26134C   26185.22477459  .00006812  00000+0  42725-3 0  9991
2 69540  97.6979 255.3957 0014722 212.5754 147.4567 15.09561170  2877
2026-134D               
1 69541U 26134D   26185.22405118  .00006720  00000+0  42073-3 0  9999
2 69541  97.7018 255.4058 0015781 212.3481 147.6782 15.09618313  2870
2026-134E               
1 69542U 26134E   26185.22377382  .00006665  00000+0  41716-3 0  9992
2 69542  97.7036 255.4106 0015517 213.1036 146.9223 15.09639924  2870
2026-134F               
1 69543U 26134F   26185.22319549  .00006927  00000+0  43289-3 0  9992
2 69543  97.6990 255.4004 0014817 214.7641 145.2620 15.09686274  2870
2026-134G               
1 69544U 26134G   26185.22213887  .00006873  00000+0  42855-3 0  9999
2 69544  97.7035 255.4121 0015281 215.5738 144.4473 15.09770286  2878
2026-134H               
1 69545U 26134H   26185.15503447  .00007052  00000+0  43881-3 0  9996
2 69545  97.7020 255.3432 0015118 217.2385 142.7797 15.09836335  2859
STARLINK-37880          
1 69546U 26135A   26184.80112098  .00386018  00000+0  19204-2 0  9990
2 69546  97.2840 212.7588 0002111  89.2556 270.8954 15.80904944  2882
STARLINK-37881          
1 69547U 26135B   26185.05375123  .00303143  00000+0  15187-2 0  9993
2 69547  97.2826 213.0268 0001559 131.5270 228.6133 15.80964806  2923
STARLINK-37265          
1 69548U 26135C   26184.86317642  .00281777  00000+0  14192-2 0  9997
2 69548  97.2827 212.8265 0001389  93.3471 266.7956 15.80901877  2899
STARLINK-37871          
1 69549U 26135D   26185.05214477  .00491720  00000+0  24029-2 0  9993
2 69549  97.2827 213.0285 0001803 147.3246 212.8135 15.81025527  2921
STARLINK-37865          
1 69550U 26135E   26185.05070115  .00344541  00000+0  17164-2 0  9994
2 69550  97.2826 213.0300 0001482 120.5844 239.5570 15.80981843  2920
STARLINK-37862          
1 69551U 26135F   26185.04789864  .00283914  00000+0  14266-2 0  9998
2 69551  97.2828 213.0339 0001428 126.2530 233.8870 15.80947798  2921
STARLINK-37861          
1 69552U 26135G   26185.04599537  .00345690  00000+0  17227-2 0  9995
2 69552  97.2828 213.0370 0001469 140.0801 220.0575 15.80971130  2924
STARLINK-37859          
1 69553U 26135H   26184.60196066  .00298278  00000+0  15227-2 0  9994
2 69553  97.2846 212.5705 0003943  58.3959 301.7694 15.80558590  2857
STARLINK-37860          
1 69554U 26135J   26185.17160738 -.02164876  00000+0 -14872-1 0  9999
2 69554  97.2834 213.1729 0012486   4.6393 355.4987 15.77972564  2944
STARLINK-37858          
1 69555U 26135K   26185.04296896  .00308347  00000+0  15434-2 0  9996
2 69555  97.2826 213.0416 0001544 124.8272 235.3142 15.80969658  2923
STARLINK-37927          
1 69556U 26135L   26185.04272823  .00319567  00000+0  15983-2 0  9996
2 69556  97.2822 213.0417 0001223 149.3991 210.7349 15.80958519  2925
STARLINK-37929          
1 69557U 26135M   26185.04189177  .00328363  00000+0  16394-2 0  9997
2 69557  97.2831 213.0429 0001237 122.9687 237.1701 15.80973910  2920
STARLINK-37954          
1 69558U 26135N   26185.04067261  .00531675  00000+0  25833-2 0  9997
2 69558  97.2829 213.0449 0001960 135.3435 224.7992 15.81049116  2929
STARLINK-37958          
1 69559U 26135P   26185.00003472  .00106489  00000+0  55099-3 0  9997
2 69559  97.2829 213.0090 0001422  88.1489  54.8962 15.80773563  4019
STARLINK-37950          
1 69560U 26135Q   26184.53027316  .00522816  00000+0  24303-2 0  9998
2 69560  97.2823 212.5148 0004377 340.2032  19.9066 15.82036885  2848
STARLINK-37952          
1 69561U 26135R   26185.16326511  .00285195  00000+0  14334-2 0  9997
2 69561  97.2829 213.1843 0000913  98.2757 261.8615 15.80939297  2946
STARLINK-37935          
1 69562U 26135S   26185.03589340  .00295703  00000+0  14836-2 0  9998
2 69562  97.2830 213.0517 0001159 128.9240 231.2132 15.80951662  2920
STARLINK-37936          
1 69563U 26135T   26185.16671296 -.00035569  00000+0 -18539-3 0  9994
2 69563  97.2828 213.2076 0001439  89.3766 334.6517 15.80853010  4042
STARLINK-37932          
1 69564U 26135U   26185.02851629  .00328746  00000+0  16412-2 0  9997
2 69564  97.2829 213.0616 0001351 124.1962 235.9434 15.80975056  2922
STARLINK-37916          
1 69565U 26135V   26185.02796767  .00316302  00000+0  15813-2 0  9998
2 69565  97.2828 213.0626 0001207 116.7245 243.4147 15.80976272  2920
STARLINK-37909          
1 69566U 26135W   26185.02165477  .00308087  00000+0  15466-2 0  9992
2 69566  97.2835 213.0713 0001528 100.9655 259.1786 15.80907704  2929
STARLINK-37934          
1 69567U 26135X   26185.02486184  .00435028  00000+0  21419-2 0  9995
2 69567  97.2831 213.0676 0001380 125.2444 234.8954 15.81005796  2924
